{
  "links" : {
    "next" : "https://api.nasa.gov/neo/rest/v1/feed?start_date=2016-04-23&end_date=2016-04-23&detailed=true&api_key=t0TVs3DtDT2H8Oy2Zy8m2eVrNsAVKAexjcZXUckd",
    "prev" : "https://api.nasa.gov/neo/rest/v1/feed?start_date=2016-04-21&end_date=2016-04-21&detailed=true&api_key=t0TVs3DtDT2H8Oy2Zy8m2eVrNsAVKAexjcZXUckd",
    "self" : "https://api.nasa.gov/neo/rest/v1/feed?start_date=2016-04-22&end_date=2016-04-22&detailed=true&api_key=t0TVs3DtDT2H8Oy2Zy8m2eVrNsAVKAexjcZXUckd"
  },
  "element_count" : 9,
  "near_earth_objects" : {
    "2016-04-22" : [ {
      "links" : {
        "self" : "https://api.nasa.gov/neo/rest/v1/neo/2154652?api_key=t0TVs3DtDT2H8Oy2Zy8m2eVrNsAVKAexjcZXUckd"
      },
      "neo_reference_id" : "2154652",
      "name" : "154652 (2004 EP20)",
      "nasa_jpl_url" : "http://ssd.jpl.nasa.gov/sbdb.cgi?sstr=2154652",
      "absolute_magnitude_h" : 18.8,
      "estimated_diameter" : {
        "kilometers" : {
          "estimated_diameter_min" : 0.4619074603,
          "estimated_diameter_max" : 1.0328564805
        },
        "meters" : {
          "estimated_diameter_min" : 461.9074602816,
          "estimated_diameter_max" : 1032.8564805039
        },
        "miles" : {
          "estimated_diameter_min" : 0.2870159005,
          "estimated_diameter_max" : 0.6417870641
        },
        "feet" : {
          "estimated_diameter_min" : 1515.4444719902,
          "estimated_diameter_max" : 3388.6368554964
        }
      },
      "is_potentially_hazardous_asteroid" : false,
      "close_approach_data" : [ {
        "close_approach_date" : "2016-04-22",
        "epoch_date_close_approach" : 1461308400000,
        "relative_velocity" : {
          "kilometers_per_second" : "11.1415822453",
          "kilometers_per_hour" : "40109.6960829493",
          "miles_per_hour" : "24922.6053244304"
        },
        "miss_distance" : {
          "astronomical" : "0.4279081319",
          "lunar" : "166.4562530518",
          "kilometers" : "64014144",
          "miles" : "39776544"
        },
        "orbiting_body" : "Earth"
      } ],
      "orbital_data" : {
        "orbit_id" : "107",
        "orbit_determination_date" : "2017-04-24 06:23:52",
        "orbit_uncertainty" : "0",
        "minimum_orbit_intersection" : ".235932",
        "jupiter_tisserand_invariant" : "5.689",
        "epoch_osculation" : "2458000.5",
        "eccentricity" : ".4505472454538265",
        "semi_major_axis" : "1.058537727922122",
        "inclination" : "16.17394580401898",
        "ascending_node_longitude" : "159.6040943727178",
        "orbital_period" : "397.7937352097516",
        "perihelion_distance" : ".5816164703978579",
        "perihelion_argument" : "191.3272454499431",
        "aphelion_distance" : "1.535458985446386",
        "perihelion_time" : "2458013.442822090630",
        "mean_anomaly" : "348.2868543664468",
        "mean_motion" : ".9049916279103203",
        "equinox" : "J2000"
      }
    }, {
      "links" : {
        "self" : "https://api.nasa.gov/neo/rest/v1/neo/2455299?api_key=t0TVs3DtDT2H8Oy2Zy8m2eVrNsAVKAexjcZXUckd"
      },
      "neo_reference_id" : "2455299",
      "name" : "455299 (2002 EL6)",
      "nasa_jpl_url" : "http://ssd.jpl.nasa.gov/sbdb.cgi?sstr=2455299",
      "absolute_magnitude_h" : 18.0,
      "estimated_diameter" : {
        "kilometers" : {
          "estimated_diameter_min" : 0.6676594135,
          "estimated_diameter_max" : 1.4929318344
        },
        "meters" : {
          "estimated_diameter_min" : 667.6594134952,
          "estimated_diameter_max" : 1492.931834393
        },
        "miles" : {
          "estimated_diameter_min" : 0.4148641974,
          "estimated_diameter_max" : 0.9276645469
        },
        "feet" : {
          "estimated_diameter_min" : 2190.4837101717,
          "estimated_diameter_max" : 4898.07047955
        }
      },
      "is_potentially_hazardous_asteroid" : true,
      "close_approach_data" : [ {
        "close_approach_date" : "2016-04-22",
        "epoch_date_close_approach" : 1461308400000,
        "relative_velocity" : {
          "kilometers_per_second" : "21.6931014085",
          "kilometers_per_hour" : "78095.1650705086",
          "miles_per_hour" : "48525.2985406168"
        },
        "miss_distance" : {
          "astronomical" : "0.4073858166",
          "lunar" : "158.4730834961",
          "kilometers" : "60944052",
          "miles" : "37868880"
        },
        "orbiting_body" : "Earth"
      } ],
      "orbital_data" : {
        "orbit_id" : "96",
        "orbit_determination_date" : "2017-04-06 09:19:58",
        "orbit_uncertainty" : "0",
        "minimum_orbit_intersection" : ".0365482",
        "jupiter_tisserand_invariant" : "3.332",
        "epoch_osculation" : "2458000.5",
        "eccentricity" : ".5769033210588634",
        "semi_major_axis" : "2.30185632815027",
        "inclination" : "9.514519601279115",
        "ascending_node_longitude" : "84.9398112864901",
        "orbital_period" : "1275.603631392073",
        "perihelion_distance" : ".9739077678400182",
        "perihelion_argument" : "186.5118909634249",
        "aphelion_distance" : "3.629804888460522",
        "perihelion_time" : "2457531.373841885300",
        "mean_anomaly" : "132.3964692206045",
        "mean_motion" : ".2822193282776485",
        "equinox" : "J2000"
      }
    }, {
      "links" : {
        "self" : "https://api.nasa.gov/neo/rest/v1/neo/3459086?api_key=t0TVs3DtDT2H8Oy2Zy8m2eVrNsAVKAexjcZXUckd"
      },
      "neo_reference_id" : "3459086",
      "name" : "(2009 HY67)",
      "nasa_jpl_url" : "http://ssd.jpl.nasa.gov/sbdb.cgi?sstr=3459086",
      "absolute_magnitude_h" : 22.0,
      "estimated_diameter" : {
        "kilometers" : {
          "estimated_diameter_min" : 0.1058168859,
          "estimated_diameter_max" : 0.2366137501
        },
        "meters" : {
          "estimated_diameter_min" : 105.8168859331,
          "estimated_diameter_max" : 236.6137501138
        },
        "miles" : {
          "estimated_diameter_min" : 0.0657515442,
          "estimated_diameter_max" : 0.1470249225
        },
        "feet" : {
          "estimated_diameter_min" : 347.1682720448,
          "estimated_diameter_max" : 776.2918559233
        }
      },
      "is_potentially_hazardous_asteroid" : false,
      "close_approach_data" : [ {
        "close_approach_date" : "2016-04-22",
        "epoch_date_close_approach" : 1461308400000,
        "relative_velocity" : {
          "kilometers_per_second" : "20.887514638",
          "kilometers_per_hour" : "75195.052696642",
          "miles_per_hour" : "46723.281493644"
        },
        "miss_distance" : {
          "astronomical" : "0.2087109075",
          "lunar" : "81.1885452271",
          "kilometers" : "31222708",
          "miles" : "19400892"
        },
        "orbiting_body" : "Earth"
      } ],
      "orbital_data" : {
        "orbit_id" : "13",
        "orbit_determination_date" : "2017-04-06 09:00:39",
        "orbit_uncertainty" : "0",
        "minimum_orbit_intersection" : ".206442",
        "jupiter_tisserand_invariant" : "3.772",
        "epoch_osculation" : "2458000.5",
        "eccentricity" : ".4854588498400177",
        "semi_major_axis" : "1.763242219645311",
        "inclination" : "36.26325622166411",
        "ascending_node_longitude" : "222.0023695381479",
        "orbital_period" : "855.1974380063261",
        "perihelion_distance" : ".9072606797069385",
        "perihelion_argument" : "277.1701358515412",
        "aphelion_distance" : "2.619223759583683",
        "perihelion_time" : "2458292.544260099594",
        "mean_anomaly" : "237.0623847038744",
        "mean_motion" : ".4209554238600712",
        "equinox" : "J2000"
      }
    } ]
  }
}